STARLINK-3122
1 19445C 21104AP  21326.14642727 -.00871023  00000-0 -31892-2 0  3263
2 19445  53.2176  90.8158 0025355  65.0822 237.2497 15.87940569    15
